[{"OBJECT_NAME":"GNOMES-1","OBJECT_ID":"2020-059B","EPOCH":"2026-03-09T12:56:23.998560","MEAN_MOTION":14.99848479,"ECCENTRICITY":0.00054513,"INCLINATION":97.8057,"RA_OF_ASC_NODE":278.776,"ARG_OF_PERICENTER":357.8604,"MEAN_ANOMALY":2.2595,"EPHEMERIS_TYPE":0,"CLASSIFICATION_TYPE":"U","NORAD_CAT_ID":46266,"ELEMENT_SET_NO":999,"REV_AT_EPOCH":30065,"BSTAR":0.00033421547,"MEAN_MOTION_DOT":4.08e-5,"MEAN_MOTION_DDOT":0},{"OBJECT_NAME":"TIANPING 3B-02","OBJECT_ID":"2024-189C","EPOCH":"2026-03-09T23:37:53.455008","MEAN_MOTION":15.00973029,"ECCENTRICITY":0.00020237,"INCLINATION":97.5355,"RA_OF_ASC_NODE":92.3046,"ARG_OF_PERICENTER":72.7812,"MEAN_ANOMALY":287.3634,"EPHEMERIS_TYPE":0,"CLASSIFICATION_TYPE":"U","NORAD_CAT_ID":61616,"ELEMENT_SET_NO":999,"REV_AT_EPOCH":7556,"BSTAR":0.00030065789,"MEAN_MOTION_DOT":3.778e-5,"MEAN_MOTION_DDOT":0}]
